IRIDIUM 33 DEB          
1 34487U 97051GC  26063.26090768  .00000963  00000+0  27821-3 0  9993
2 34487  86.3484 337.2952 0029308 218.1877 272.5388 14.43372275894248
IRIDIUM 33 DEB          
1 34488U 97051GD  26053.04643645  .01238203  00000+0  64727-2 0  9993
2 34488  86.3081 269.5420 0004770  70.8002 289.3788 15.78089963903416
IRIDIUM 33 DEB          
1 34492U 97051GH  26063.61481960  .00016229  00000+0  54593-2 0  9993
2 34492  86.4704 301.4920 0186682 335.9827  51.1154 14.27635689862262
IRIDIUM 33 DEB          
1 34497U 97051GN  26063.32543161  .00002829  00000+0  10981-2 0  9992
2 34497  86.2805  17.5296 0082343  75.4545  77.3596 14.27759501880473
IRIDIUM 33 DEB          
1 34508U 97051GZ  26063.46718744  .00005346  00000+0  16857-2 0  9996
2 34508  86.3655  67.9524 0061747 265.3100  94.1045 14.39088207884847
IRIDIUM 33 DEB          
1 34521U 97051HN  26063.26157672  .00011843  00000+0  22261-2 0  9991
2 34521  86.3836 354.6297 0005000  21.2292 338.9127 14.64570380896655
IRIDIUM 33 DEB          
1 34525U 97051HS  26063.32603439  .00001957  00000+0  57707-3 0  9998
2 34525  86.3767  12.0080 0004541 152.8143   1.2284 14.43157181892648
IRIDIUM 33 DEB          
1 34529U 97051HW  26063.31127528  .00000984  00000+0  30193-3 0  9990
2 34529  86.3691   0.6390 0003337 315.0674  45.0255 14.40730156893167
IRIDIUM 33 DEB          
1 34538U 97051JF  26063.70455411  .00003938  00000+0  11553-2 0  9998
2 34538  86.2801 329.6571 0036547  54.6981 334.9979 14.43247762889381
IRIDIUM 33 DEB          
1 34540U 97051JH  26063.08032159  .00013583  00000+0  19070-2 0  9991
2 34540  86.3049 270.3553 0014355 244.9978 245.3130 14.77274849902219
IRIDIUM 33 DEB          
1 34648U 97051JZ  26063.50992073  .00010638  00000+0  48804-2 0  9992
2 34648  86.3889 248.8830 0175941  39.5876 321.8002 14.13342933861157
IRIDIUM 33 DEB          
1 34651U 97051KC  26063.53547249  .00009776  00000+0  36418-2 0  9999
2 34651  86.2781 105.7221 0131921 300.5078  58.3142 14.27201856870623
IRIDIUM 33 DEB          
1 34652U 97051KD  26062.69197610  .00004797  00000+0  92811-3 0  9997
2 34652  86.3295 303.9474 0029007  22.9599  32.4891 14.62914267896674
IRIDIUM 33 DEB          
1 34690U 97051KM  26063.80265528  .00002402  00000+0  54751-3 0  9999
2 34690  86.3817   1.3166 0012467  95.4368 294.2402 14.55440391892883
IRIDIUM 33 DEB          
1 34693U 97051KQ  26055.99059176  .01322234  00000+0  68577-2 0  9992
2 34693  86.2833 265.9163 0003939  44.5223 315.6368 15.78525000900614
IRIDIUM 33 DEB          
1 34696U 97051KT  26062.78494826  .00047274  00000+0  73206-2 0  9997
2 34696  86.1826 349.6290 0057888 253.5917 136.5957 14.71841744878620
