[{"OBJECT_NAME":"IRIDIUM 33 DEB","OBJECT_ID":"1997-051GC","EPOCH":"2026-03-04T06:15:42.423552","MEAN_MOTION":14.43372275,"ECCENTRICITY":0.00293086,"INCLINATION":86.3484,"RA_OF_ASC_NODE":337.2952,"ARG_OF_PERICENTER":218.1877,"MEAN_ANOMALY":272.5388,"EPHEMERIS_TYPE":0,"CLASSIFICATION_TYPE":"U","NORAD_CAT_ID":34487,"ELEMENT_SET_NO":999,"REV_AT_EPOCH":89424,"BSTAR":0.0002782085,"MEAN_MOTION_DOT":9.63e-6,"MEAN_MOTION_DDOT":0},{"OBJECT_NAME":"IRIDIUM 33 DEB","OBJECT_ID":"1997-051GD","EPOCH":"2026-02-22T01:06:52.109280","MEAN_MOTION":15.78089963,"ECCENTRICITY":0.00047702,"INCLINATION":86.3081,"RA_OF_ASC_NODE":269.542,"ARG_OF_PERICENTER":70.8002,"MEAN_ANOMALY":289.3788,"EPHEMERIS_TYPE":0,"CLASSIFICATION_TYPE":"U","NORAD_CAT_ID":34488,"ELEMENT_SET_NO":999,"REV_AT_EPOCH":90341,"BSTAR":0.0064727089,"MEAN_MOTION_DOT":0.01238203,"MEAN_MOTION_DDOT":0},{"OBJECT_NAME":"IRIDIUM 33 DEB","OBJECT_ID":"1997-051GH","EPOCH":"2026-03-04T14:45:20.413440","MEAN_MOTION":14.27635689,"ECCENTRICITY":0.0186682,"INCLINATION":86.4704,"RA_OF_ASC_NODE":301.492,"ARG_OF_PERICENTER":335.9827,"MEAN_ANOMALY":51.1154,"EPHEMERIS_TYPE":0,"CLASSIFICATION_TYPE":"U","NORAD_CAT_ID":34492,"ELEMENT_SET_NO":999,"REV_AT_EPOCH":86226,"BSTAR":0.0054593,"MEAN_MOTION_DOT":0.00016229,"MEAN_MOTION_DDOT":0},{"OBJECT_NAME":"IRIDIUM 33 DEB","OBJECT_ID":"1997-051GN","EPOCH":"2026-03-04T07:48:37.291104","MEAN_MOTION":14.27759501,"ECCENTRICITY":0.00823431,"INCLINATION":86.2805,"RA_OF_ASC_NODE":17.5296,"ARG_OF_PERICENTER":75.4545,"MEAN_ANOMALY":77.3596,"EPHEMERIS_TYPE":0,"CLASSIFICATION_TYPE":"U","NORAD_CAT_ID":34497,"ELEMENT_SET_NO":999,"REV_AT_EPOCH":88047,"BSTAR":0.0010980714,"MEAN_MOTION_DOT":2.829e-5,"MEAN_MOTION_DDOT":0},{"OBJECT_NAME":"IRIDIUM 33 DEB","OBJECT_ID":"1997-051GZ","EPOCH":"2026-03-04T11:12:44.994816","MEAN_MOTION":14.39088207,"ECCENTRICITY":0.00617479,"INCLINATION":86.3655,"RA_OF_ASC_NODE":67.9524,"ARG_OF_PERICENTER":265.31,"MEAN_ANOMALY":94.1045,"EPHEMERIS_TYPE":0,"CLASSIFICATION_TYPE":"U","NORAD_CAT_ID":34508,"ELEMENT_SET_NO":999,"REV_AT_EPOCH":88484,"BSTAR":0.0016857467,"MEAN_MOTION_DOT":5.346e-5,"MEAN_MOTION_DDOT":0},{"OBJECT_NAME":"IRIDIUM 33 DEB","OBJECT_ID":"1997-051HN","EPOCH":"2026-03-04T06:16:40.228608","MEAN_MOTION":14.6457038,"ECCENTRICITY":0.00050004,"INCLINATION":86.3836,"RA_OF_ASC_NODE":354.6297,"ARG_OF_PERICENTER":21.2292,"MEAN_ANOMALY":338.9127,"EPHEMERIS_TYPE":0,"CLASSIFICATION_TYPE":"U","NORAD_CAT_ID":34521,"ELEMENT_SET_NO":999,"REV_AT_EPOCH":89665,"BSTAR":0.0022260582,"MEAN_MOTION_DOT":0.00011843,"MEAN_MOTION_DDOT":0},{"OBJECT_NAME":"IRIDIUM 33 DEB","OBJECT_ID":"1997-051HS","EPOCH":"2026-03-04T07:49:29.371296","MEAN_MOTION":14.43157181,"ECCENTRICITY":0.00045412,"INCLINATION":86.3767,"RA_OF_ASC_NODE":12.008,"ARG_OF_PERICENTER":152.8143,"MEAN_ANOMALY":1.2284,"EPHEMERIS_TYPE":0,"CLASSIFICATION_TYPE":"U","NORAD_CAT_ID":34525,"ELEMENT_SET_NO":999,"REV_AT_EPOCH":89264,"BSTAR":0.00057706901,"MEAN_MOTION_DOT":1.957e-5,"MEAN_MOTION_DDOT":0},{"OBJECT_NAME":"IRIDIUM 33 DEB","OBJECT_ID":"1997-051HW","EPOCH":"2026-03-04T07:28:14.184192","MEAN_MOTION":14.40730156,"ECCENTRICITY":0.0003337,"INCLINATION":86.3691,"RA_OF_ASC_NODE":0.639,"ARG_OF_PERICENTER":315.0674,"MEAN_ANOMALY":45.0255,"EPHEMERIS_TYPE":0,"CLASSIFICATION_TYPE":"U","NORAD_CAT_ID":34529,"ELEMENT_SET_NO":999,"REV_AT_EPOCH":89316,"BSTAR":0.00030193424,"MEAN_MOTION_DOT":9.84e-6,"MEAN_MOTION_DDOT":0},{"OBJECT_NAME":"IRIDIUM 33 DEB","OBJECT_ID":"1997-051JF","EPOCH":"2026-03-04T16:54:33.475104","MEAN_MOTION":14.43247762,"ECCENTRICITY":0.0036547,"INCLINATION":86.2801,"RA_OF_ASC_NODE":329.6571,"ARG_OF_PERICENTER":54.6981,"MEAN_ANOMALY":334.9979,"EPHEMERIS_TYPE":0,"CLASSIFICATION_TYPE":"U","NORAD_CAT_ID":34538,"ELEMENT_SET_NO":999,"REV_AT_EPOCH":88938,"BSTAR":0.0011553,"MEAN_MOTION_DOT":3.938e-5,"MEAN_MOTION_DDOT":0},{"OBJECT_NAME":"IRIDIUM 33 DEB","OBJECT_ID":"1997-051JH","EPOCH":"2026-03-04T01:55:39.785376","MEAN_MOTION":14.77274849,"ECCENTRICITY":0.00143554,"INCLINATION":86.3049,"RA_OF_ASC_NODE":270.3553,"ARG_OF_PERICENTER":244.9978,"MEAN_ANOMALY":245.313,"EPHEMERIS_TYPE":0,"CLASSIFICATION_TYPE":"U","NORAD_CAT_ID":34540,"ELEMENT_SET_NO":999,"REV_AT_EPOCH":90221,"BSTAR":0.001907044,"MEAN_MOTION_DOT":0.00013583,"MEAN_MOTION_DDOT":0},{"OBJECT_NAME":"IRIDIUM 33 DEB","OBJECT_ID":"1997-051JZ","EPOCH":"2026-03-04T12:14:17.151072","MEAN_MOTION":14.13342933,"ECCENTRICITY":0.01759418,"INCLINATION":86.3889,"RA_OF_ASC_NODE":248.883,"ARG_OF_PERICENTER":39.5876,"MEAN_ANOMALY":321.8002,"EPHEMERIS_TYPE":0,"CLASSIFICATION_TYPE":"U","NORAD_CAT_ID":34648,"ELEMENT_SET_NO":999,"REV_AT_EPOCH":86115,"BSTAR":0.0048803556,"MEAN_MOTION_DOT":0.00010638,"MEAN_MOTION_DDOT":0},{"OBJECT_NAME":"IRIDIUM 33 DEB","OBJECT_ID":"1997-051KC","EPOCH":"2026-03-04T12:51:04.823136","MEAN_MOTION":14.27201856,"ECCENTRICITY":0.0131921,"INCLINATION":86.2781,"RA_OF_ASC_NODE":105.7221,"ARG_OF_PERICENTER":300.5078,"MEAN_ANOMALY":58.3142,"EPHEMERIS_TYPE":0,"CLASSIFICATION_TYPE":"U","NORAD_CAT_ID":34651,"ELEMENT_SET_NO":999,"REV_AT_EPOCH":87062,"BSTAR":0.0036418,"MEAN_MOTION_DOT":9.776e-5,"MEAN_MOTION_DDOT":0},{"OBJECT_NAME":"IRIDIUM 33 DEB","OBJECT_ID":"1997-051KD","EPOCH":"2026-03-03T16:36:26.735040","MEAN_MOTION":14.62914267,"ECCENTRICITY":0.00290077,"INCLINATION":86.3295,"RA_OF_ASC_NODE":303.9474,"ARG_OF_PERICENTER":22.9599,"MEAN_ANOMALY":32.4891,"EPHEMERIS_TYPE":0,"CLASSIFICATION_TYPE":"U","NORAD_CAT_ID":34652,"ELEMENT_SET_NO":999,"REV_AT_EPOCH":89667,"BSTAR":0.00092810952,"MEAN_MOTION_DOT":4.797e-5,"MEAN_MOTION_DDOT":0},{"OBJECT_NAME":"IRIDIUM 33 DEB","OBJECT_ID":"1997-051KM","EPOCH":"2026-03-04T19:15:49.416192","MEAN_MOTION":14.55440391,"ECCENTRICITY":0.0012467,"INCLINATION":86.3817,"RA_OF_ASC_NODE":1.3166,"ARG_OF_PERICENTER":95.4368,"MEAN_ANOMALY":294.2402,"EPHEMERIS_TYPE":0,"CLASSIFICATION_TYPE":"U","NORAD_CAT_ID":34690,"ELEMENT_SET_NO":999,"REV_AT_EPOCH":89288,"BSTAR":0.00054751,"MEAN_MOTION_DOT":2.402e-5,"MEAN_MOTION_DDOT":0},{"OBJECT_NAME":"IRIDIUM 33 DEB","OBJECT_ID":"1997-051KQ","EPOCH":"2026-02-24T23:46:27.128064","MEAN_MOTION":15.78525,"ECCENTRICITY":0.00039393,"INCLINATION":86.2833,"RA_OF_ASC_NODE":265.9163,"ARG_OF_PERICENTER":44.5223,"MEAN_ANOMALY":315.6368,"EPHEMERIS_TYPE":0,"CLASSIFICATION_TYPE":"U","NORAD_CAT_ID":34693,"ELEMENT_SET_NO":999,"REV_AT_EPOCH":90061,"BSTAR":0.0068576941,"MEAN_MOTION_DOT":0.01322234,"MEAN_MOTION_DDOT":0},{"OBJECT_NAME":"IRIDIUM 33 DEB","OBJECT_ID":"1997-051KT","EPOCH":"2026-03-03T18:50:19.529664","MEAN_MOTION":14.71841744,"ECCENTRICITY":0.00578886,"INCLINATION":86.1826,"RA_OF_ASC_NODE":349.629,"ARG_OF_PERICENTER":253.5917,"MEAN_ANOMALY":136.5957,"EPHEMERIS_TYPE":0,"CLASSIFICATION_TYPE":"U","NORAD_CAT_ID":34696,"ELEMENT_SET_NO":999,"REV_AT_EPOCH":87862,"BSTAR":0.007320575,"MEAN_MOTION_DOT":0.00047274,"MEAN_MOTION_DDOT":0}]
